start=new Date('2022-09-29T00:00:00.000Z').valueOf();
sats=[{"ARG_OF_PERICENTER":"93.6418","INCLINATION":"53.0514","SITE":"AFETR","DECAY_DATE":null,"OBJECT_ID":"2021-018AW","OBJECT_TYPE":"PAYLOAD","NORAD_CAT_ID":"47831","EPOCH":"2022-09-28T20:47:18.425472","RCS_SIZE":"LARGE","PERIAPSIS":"546.404","GP_ID":"213764342","MEAN_MOTION_DOT":"-0.00000555","MEAN_ANOMALY":"266.4708","FILE":"3586258","RA_OF_ASC_NODE":"123.2135","MEAN_MOTION_DDOT":"0.0000000000000","ECCENTRICITY":"0.00011970","BSTAR":"-0.00001837000000","TIME_SYSTEM":"UTC","REF_FRAME":"TEME","LAUNCH_DATE":"2021-03-11","TLE_LINE2":"2 47831  53.0514 123.2135 0001197  93.6418 266.4708 15.06393552 87275","PERIOD":"95.593","TLE_LINE1":"1 47831U 21018AW  22271.86618548 -.00000555  00000-0 -18370-4 0  9995","MEAN_MOTION":"15.06393552","CLASSIFICATION_TYPE":"U","CENTER_NAME":"EARTH","SEMIMAJOR_AXIS":"6925.368","REV_AT_EPOCH":"8727","COUNTRY_CODE":"US","ELEMENT_SET_NO":"999","OBJECT_NAME":"STARLINK-2420","MEAN_ELEMENT_THEORY":"SGP4","APOAPSIS":"548.062","EPHEMERIS_TYPE":"0"},{"REV_AT_EPOCH":"8699","CENTER_NAME":"EARTH","SEMIMAJOR_AXIS":"6925.370","MEAN_MOTION":"15.06393034","CLASSIFICATION_TYPE":"U","TLE_LINE1":"1 47832U 21018AX  22271.75606355  .00001475  00000-0  11792-3 0  9997","TLE_LINE2":"2 47832  53.0563 138.7080 0001102  96.4267 263.6847 15.06393034 86995","PERIOD":"95.593","TIME_SYSTEM":"UTC","BSTAR":"0.00011792000000","LAUNCH_DATE":"2021-03-11","REF_FRAME":"TEME","APOAPSIS":"547.998","EPHEMERIS_TYPE":"0","MEAN_ELEMENT_THEORY":"SGP4","OBJECT_NAME":"STARLINK-2422","ELEMENT_SET_NO":"999","COUNTRY_CODE":"US","OBJECT_TYPE":"PAYLOAD","DECAY_DATE":null,"OBJECT_ID":"2021-018AX","INCLINATION":"53.0563","ARG_OF_PERICENTER":"96.4267","SITE":"AFETR","ECCENTRICITY":"0.00011020","MEAN_MOTION_DDOT":"0.0000000000000","MEAN_ANOMALY":"263.6847","MEAN_MOTION_DOT":"0.00001475","FILE":"3586258","RA_OF_ASC_NODE":"138.7080","EPOCH":"2022-09-28T18:08:43.890720","NORAD_CAT_ID":"47832","GP_ID":"213764592","RCS_SIZE":"LARGE","PERIAPSIS":"546.472"},{"CENTER_NAME":"EARTH","SEMIMAJOR_AXIS":"6925.378","MEAN_MOTION":"15.06390333","CLASSIFICATION_TYPE":"U","REV_AT_EPOCH":"8705","LAUNCH_DATE":"2021-03-11","REF_FRAME":"TEME","BSTAR":"0.00006365600000","TIME_SYSTEM":"UTC","TLE_LINE1":"1 47833U 21018AY  22271.78187033  .00000667  00000-0  63656-4 0  9997","TLE_LINE2":"2 47833  53.0534 138.5867 0001487  81.5207 278.5950 15.06390333 87057","PERIOD":"95.593","MEAN_ELEMENT_THEORY":"SGP4","EPHEMERIS_TYPE":"0","APOAPSIS":"548.273","COUNTRY_CODE":"US","OBJECT_NAME":"STARLINK-2423","ELEMENT_SET_NO":"999","OBJECT_TYPE":"PAYLOAD","SITE":"AFETR","INCLINATION":"53.0534","ARG_OF_PERICENTER":"81.5207","OBJECT_ID":"2021-018AY","DECAY_DATE":null,"FILE":"3586258","RA_OF_ASC_NODE":"138.5867","MEAN_ANOMALY":"278.5950","MEAN_MOTION_DOT":"0.00000667","ECCENTRICITY":"0.00014870","MEAN_MOTION_DDOT":"0.0000000000000","GP_ID":"213764840","PERIAPSIS":"546.213","RCS_SIZE":"LARGE","EPOCH":"2022-09-28T18:45:53.596512","NORAD_CAT_ID":"47833"},{"GP_ID":"213765565","RCS_SIZE":"LARGE","PERIAPSIS":"546.219","EPOCH":"2022-09-28T20:37:20.997984","NORAD_CAT_ID":"47834","ECCENTRICITY":"0.00014290","MEAN_MOTION_DDOT":"0.0000000000000","FILE":"3586258","RA_OF_ASC_NODE":"138.2408","MEAN_ANOMALY":"264.0341","MEAN_MOTION_DOT":"0.00003243","OBJECT_ID":"2021-018AZ","DECAY_DATE":null,"SITE":"AFETR","INCLINATION":"53.0553","ARG_OF_PERICENTER":"96.0811","OBJECT_TYPE":"PAYLOAD","OBJECT_NAME":"STARLINK-2424","ELEMENT_SET_NO":"999","COUNTRY_CODE":"US","EPHEMERIS_TYPE":"0","APOAPSIS":"548.198","MEAN_ELEMENT_THEORY":"SGP4","TLE_LINE1":"1 47834U 21018AZ  22271.85927081  .00003243  00000-0  23651-3 0  9994","TLE_LINE2":"2 47834  53.0553 138.2408 0001429  96.0811 264.0341 15.06401544 87067","PERIOD":"95.592","LAUNCH_DATE":"2021-03-11","REF_FRAME":"TEME","BSTAR":"0.00023651000000","TIME_SYSTEM":"UTC","REV_AT_EPOCH":"8706","CENTER_NAME":"EARTH","SEMIMAJOR_AXIS":"6925.344","MEAN_MOTION":"15.06401544","CLASSIFICATION_TYPE":"U"},{"COUNTRY_CODE":"US","OBJECT_NAME":"STARLINK-2425","ELEMENT_SET_NO":"999","MEAN_ELEMENT_THEORY":"SGP4","APOAPSIS":"547.735","EPHEMERIS_TYPE":"0","BSTAR":"0.00006558600000","TIME_SYSTEM":"UTC","LAUNCH_DATE":"2021-03-11","REF_FRAME":"TEME","TLE_LINE1":"1 47835U 21018BA  22272.01916317  .00000696  00000-0  65586-4 0  9997","PERIOD":"95.592","TLE_LINE2":"2 47835  53.0545 142.6485 0000739  84.6213 275.4860 15.06396936 86626","CENTER_NAME":"EARTH","SEMIMAJOR_AXIS":"6925.358","CLASSIFICATION_TYPE":"U","MEAN_MOTION":"15.06396936","REV_AT_EPOCH":"8662","EPOCH":"2022-09-29T00:27:35.697888","NORAD_CAT_ID":"47835","GP_ID":"213769320","PERIAPSIS":"546.711","RCS_SIZE":"LARGE","MEAN_ANOMALY":"275.4860","MEAN_MOTION_DOT":"0.00000696","RA_OF_ASC_NODE":"142.6485","FILE":"3586318","MEAN_MOTION_DDOT":"0.0000000000000","ECCENTRICITY":"0.00007390","INCLINATION":"53.0545","ARG_OF_PERICENTER":"84.6213","SITE":"AFETR","DECAY_DATE":null,"OBJECT_ID":"2021-018BA","OBJECT_TYPE":"PAYLOAD"},{"GP_ID":"213764092","RCS_SIZE":"LARGE","PERIAPSIS":"546.195","EPOCH":"2022-09-28T17:52:49.880928","NORAD_CAT_ID":"47836","RA_OF_ASC_NODE":"138.8468","FILE":"3586258","MEAN_ANOMALY":"272.9525","MEAN_MOTION_DOT":"0.00004361","MEAN_MOTION_DDOT":"0.0000000000000","ECCENTRICITY":"0.00014760","SITE":"AFETR","INCLINATION":"53.0544","ARG_OF_PERICENTER":"87.1633","OBJECT_ID":"2021-018BB","DECAY_DATE":null,"OBJECT_TYPE":"PAYLOAD","COUNTRY_CODE":"US","OBJECT_NAME":"STARLINK-2426","ELEMENT_SET_NO":"999","MEAN_ELEMENT_THEORY":"SGP4","EPHEMERIS_TYPE":"0","APOAPSIS":"548.240","LAUNCH_DATE":"2021-03-11","REF_FRAME":"TEME","BSTAR":"0.00031151000000","TIME_SYSTEM":"UTC","TLE_LINE1":"1 47836U 21018BB  22271.74502177  .00004361  00000-0  31151-3 0  9995","PERIOD":"95.592","TLE_LINE2":"2 47836  53.0544 138.8468 0001476  87.1633 272.9525 15.06398771 86996","CENTER_NAME":"EARTH","SEMIMAJOR_AXIS":"6925.352","MEAN_MOTION":"15.06398771","CLASSIFICATION_TYPE":"U","REV_AT_EPOCH":"8699"},{"OBJECT_TYPE":"PAYLOAD","OBJECT_ID":"2021-018BC","DECAY_DATE":null,"SITE":"AFETR","INCLINATION":"53.0543","ARG_OF_PERICENTER":"85.2066","ECCENTRICITY":"0.00010290","MEAN_MOTION_DDOT":"0.0000000000000","FILE":"3586258","RA_OF_ASC_NODE":"119.0075","MEAN_ANOMALY":"274.9041","MEAN_MOTION_DOT":"0.00001523","GP_ID":"213765341","RCS_SIZE":"LARGE","PERIAPSIS":"546.531","EPOCH":"2022-09-28T16:30:32.694624","NORAD_CAT_ID":"47837","REV_AT_EPOCH":"8727","SEMIMAJOR_AXIS":"6925.379","CENTER_NAME":"EARTH","MEAN_MOTION":"15.06390162","CLASSIFICATION_TYPE":"U","TLE_LINE1":"1 47837U 21018BC  22271.68787841  .00001523  00000-0  12115-3 0  9998","PERIOD":"95.593","TLE_LINE2":"2 47837  53.0543 119.0075 0001029  85.2066 274.9041 15.06390162 87277","LAUNCH_DATE":"2021-03-11","REF_FRAME":"TEME","TIME_SYSTEM":"UTC","BSTAR":"0.00012115000000","EPHEMERIS_TYPE":"0","APOAPSIS":"547.956","MEAN_ELEMENT_THEORY":"SGP4","OBJECT_NAME":"STARLINK-2427","ELEMENT_SET_NO":"999","COUNTRY_CODE":"US"},{"PERIOD":"95.592","TLE_LINE2":"2 47838  53.0561 140.4523 0001480  73.0815 287.0336 15.06403695 86932","TLE_LINE1":"1 47838U 21018BD  22271.36903008  .00002387  00000-0  17909-3 0  9994","REF_FRAME":"TEME","LAUNCH_DATE":"2021-03-11","BSTAR":"0.00017909000000","TIME_SYSTEM":"UTC","REV_AT_EPOCH":"8693","MEAN_MOTION":"15.06403695","CLASSIFICATION_TYPE":"U","SEMIMAJOR_AXIS":"6925.337","CENTER_NAME":"EARTH","ELEMENT_SET_NO":"999","OBJECT_NAME":"STARLINK-2429","COUNTRY_CODE":"US","EPHEMERIS_TYPE":"0","APOAPSIS":"548.227","MEAN_ELEMENT_THEORY":"SGP4","OBJECT_ID":"2021-018BD","DECAY_DATE":null,"SITE":"AFETR","ARG_OF_PERICENTER":"73.0815","INCLINATION":"53.0561","OBJECT_TYPE":"PAYLOAD","RCS_SIZE":"MEDIUM","PERIAPSIS":"546.177","GP_ID":"213709695","NORAD_CAT_ID":"47838","EPOCH":"2022-09-28T08:51:24.198912","ECCENTRICITY":"0.00014800","MEAN_MOTION_DDOT":"0.0000000000000","FILE":"3586039","RA_OF_ASC_NODE":"140.4523","MEAN_MOTION_DOT":"0.00002387","MEAN_ANOMALY":"287.0336"},{"LAUNCH_DATE":"2021-03-11","REF_FRAME":"TEME","BSTAR":"0.00007178500000","TIME_SYSTEM":"UTC","TLE_LINE1":"1 47839U 21018BE  22271.86203670  .00000788  00000-0  71785-4 0  9994","TLE_LINE2":"2 47839  53.0545 108.2136 0001310  81.8107 278.3031 15.06392319 87442","PERIOD":"95.593","CENTER_NAME":"EARTH","SEMIMAJOR_AXIS":"6925.372","CLASSIFICATION_TYPE":"U","MEAN_MOTION":"15.06392319","REV_AT_EPOCH":"8744","COUNTRY_CODE":"US","OBJECT_NAME":"STARLINK-2431","ELEMENT_SET_NO":"999","MEAN_ELEMENT_THEORY":"SGP4","EPHEMERIS_TYPE":"0","APOAPSIS":"548.144","SITE":"AFETR","INCLINATION":"53.0545","ARG_OF_PERICENTER":"81.8107","OBJECT_ID":"2021-018BE","DECAY_DATE":null,"OBJECT_TYPE":"PAYLOAD","GP_ID":"213764343","PERIAPSIS":"546.330","RCS_SIZE":"LARGE","EPOCH":"2022-09-28T20:41:19.970880","NORAD_CAT_ID":"47839","RA_OF_ASC_NODE":"108.2136","FILE":"3586258","MEAN_ANOMALY":"278.3031","MEAN_MOTION_DOT":"0.00000788","MEAN_MOTION_DDOT":"0.0000000000000","ECCENTRICITY":"0.00013100"},{"OBJECT_TYPE":"PAYLOAD","OBJECT_ID":"2021-018BF","DECAY_DATE":null,"SITE":"AFETR","INCLINATION":"53.0540","ARG_OF_PERICENTER":"80.1395","ECCENTRICITY":"0.00014150","MEAN_MOTION_DDOT":"0.0000000000000","FILE":"3586139","RA_OF_ASC_NODE":"119.3823","MEAN_ANOMALY":"279.9754","MEAN_MOTION_DOT":"0.00000093","GP_ID":"213741127","RCS_SIZE":"LARGE","PERIAPSIS":"546.240","EPOCH":"2022-09-28T14:33:45.935424","NORAD_CAT_ID":"47840","REV_AT_EPOCH":"8691","CENTER_NAME":"EARTH","SEMIMAJOR_AXIS":"6925.355","MEAN_MOTION":"15.06397941","CLASSIFICATION_TYPE":"U","TLE_LINE1":"1 47840U 21018BF  22271.60678166  .00000093  00000-0  25154-4 0  9992","PERIOD":"95.592","TLE_LINE2":"2 47840  53.0540 119.3823 0001415  80.1395 279.9754 15.06397941 86918","LAUNCH_DATE":"2021-03-11","REF_FRAME":"TEME","BSTAR":"0.00002515400000","TIME_SYSTEM":"UTC","EPHEMERIS_TYPE":"0","APOAPSIS":"548.200","MEAN_ELEMENT_THEORY":"SGP4","OBJECT_NAME":"STARLINK-2432","ELEMENT_SET_NO":"999","COUNTRY_CODE":"US"}];
